NORAD_CAT_ID,OBJECT_NAME,OBJECT_TYPE,EPOCH,MEAN_MOTION,ECCENTRICITY,INCLINATION,RA_OF_ASC_NODE,ARG_OF_PERICENTER,MEAN_ANOMALY,BSTAR,MEAN_MOTION_DOT,MEAN_MOTION_DDOT,TLE_LINE0,TLE_LINE1,TLE_LINE2,SEMIMAJOR_AXIS,PERIOD,APOGEE,PERIGEE,DECAYED
53930.0,STARLINK-5010,PAYLOAD,2024-07-25 01:43:08,15.0885689,0.0001496,53.2161,84.2191,137.7197,222.3911,0.00022426,3.285e-05,0.0,0 STARLINK-5010,1 53930U 22119AW  24207.07162108  .00003285  00000-0  22426-3 0  9992,2 53930  53.2161  84.2191 0001496 137.7197 222.3911 15.08856890102081,6917.829,95.436,540.729,538.659,0.0
53930.0,STARLINK-5010,PAYLOAD,2024-07-25 22:23:10,15.08831456,6.93e-05,53.2154,80.3636,110.9815,249.1252,0.00013238,1.819e-05,0.0,0 STARLINK-5010,1 53930U 22119AW  24207.93275937  .00001819  00000-0  13238-3 0  9994,2 53930  53.2154  80.3636 0000693 110.9815 249.1252 15.08831456102213,6917.907,95.438,540.251,539.292,0.0
53930.0,STARLINK-5010,PAYLOAD,2024-07-26 22:13:55,15.08903194,5.04e-05,53.2152,75.9041,200.2874,159.8098,-0.00087716,-0.00014244,0.0,0 STARLINK-5010,1 53930U 22119AW  24208.92634076 -.00014244  00000-0 -87716-3 0  9997,2 53930  53.2152  75.9041 0000504 200.2874 159.8098 15.08903194102786,6917.687,95.434,539.901,539.204,0.0
53930.0,STARLINK-5010,PAYLOAD,2024-07-27 22:04:44,15.08833029,0.0001184,53.2167,71.4421,116.5828,243.5285,0.000162,2.291e-05,0.0,0 STARLINK-5010,1 53930U 22119AW  24209.91995650  .00002291  00000-0  16200-3 0  9992,2 53930  53.2167  71.4421 0001184 116.5828 243.5285 15.08833029102933,6917.902,95.438,540.586,538.948,0.0
53930.0,STARLINK-5010,PAYLOAD,2024-07-28 02:50:53,15.08833351,0.0001097,53.2172,70.5484,103.1611,256.9503,0.00035959,5.439e-05,0.0,0 STARLINK-5010,1 53930U 22119AW  24210.11867462  .00005439  00000-0  35959-3 0  9994,2 53930  53.2172  70.5484 0001097 103.1611 256.9503 15.08833351102549,6917.901,95.438,540.525,539.007,0.0
53930.0,STARLINK-5010,PAYLOAD,2024-07-28 20:20:08,15.08834711,0.0001079,53.2172,67.2777,100.9583,259.1531,1.1078e-05,-1.11e-06,0.0,0 STARLINK-5010,1 53930U 22119AW  24210.84732450 -.00000111  00000-0  11078-4 0  9992,2 53930  53.2172  67.2777 0001079 100.9583 259.1531 15.08834711102659,6917.897,95.438,540.508,539.015,0.0
53930.0,STARLINK-5010,PAYLOAD,2024-07-28 21:55:32,15.08833851,0.000104,53.217,66.9802,95.2571,264.854,5.3544e-07,-2.79e-06,0.0,0 STARLINK-5010,1 53930U 22119AW  24210.91356548 -.00000279  00000-0  53544-6 0  9991,2 53930  53.2170  66.9802 0001040  95.2571 264.8540 15.08833851103088,6917.899,95.438,540.484,539.045,0.0
53930.0,STARLINK-5010,PAYLOAD,2024-07-29 07:27:50,15.08838815,9.91e-05,53.2168,65.195,91.6677,268.4429,7.6005e-05,9.22e-06,0.0,0 STARLINK-5010,1 53930U 22119AW  24211.31100184  .00000922  00000-0  76005-4 0  9998,2 53930  53.2168  65.1950 0000991  91.6677 268.4429 15.08838815103149,6917.884,95.438,540.435,539.063,0.0
53930.0,STARLINK-5010,PAYLOAD,2024-07-29 21:46:18,15.08843068,0.000105,53.2169,62.5174,98.22,261.8911,9.4133e-05,1.211e-05,0.0,0 STARLINK-5010,1 53930U 22119AW  24211.90715958  .00001211  00000-0  94133-4 0  9998,2 53930  53.2169  62.5174 0001050  98.2200 261.8911 15.08843068103230,6917.871,95.437,540.462,539.01,0.0
53930.0,STARLINK-5010,PAYLOAD,2024-07-30 07:18:36,15.08852441,0.0001058,53.2171,60.7349,81.8343,278.2769,0.00011733,1.581e-05,0.0,0 STARLINK-5010,1 53930U 22119AW  24212.30459225  .00001581  00000-0  11733-3 0  9999,2 53930  53.2171  60.7349 0001058  81.8343 278.2769 15.08852441102878,6917.842,95.437,540.439,538.975,0.0
53930.0,STARLINK-5010,PAYLOAD,2024-07-30 20:01:42,15.08835537,0.0001001,53.2173,58.3525,94.7856,265.325,9.9334e-05,1.293e-05,0.0,0 STARLINK-5010,1 53930U 22119AW  24212.83452440  .00001293  00000-0  99334-4 0  9993,2 53930  53.2173  58.3525 0001001  94.7856 265.3250 15.08835537102957,6917.894,95.438,540.452,539.067,0.0
53930.0,STARLINK-5010,PAYLOAD,2024-07-30 21:37:05,15.0883832,0.0001196,53.2168,58.058,83.8866,276.2262,0.00013715,1.895e-05,0.0,0 STARLINK-5010,1 53930U 22119AW  24212.90076300  .00001895  00000-0  13715-3 0  9994,2 53930  53.2168  58.0580 0001196  83.8866 276.2262 15.08838320103389,6917.886,95.438,540.578,538.923,0.0
53930.0,STARLINK-5010,PAYLOAD,2024-07-31 13:30:58,15.08829663,0.0001272,53.2173,55.0842,93.0228,267.091,3.3609e-06,-2.34e-06,0.0,0 STARLINK-5010,1 53930U 22119AW  24213.56317224 -.00000234  00000-0  33609-5 0  9993,2 53930  53.2173  55.0842 0001272  93.0228 267.0910 15.08829663103482,6917.912,95.438,540.657,538.897,0.0
53930.0,STARLINK-5010,PAYLOAD,2024-07-31 19:52:30,15.08838284,0.0001138,53.2169,53.8951,96.2042,263.908,-1.8702e-05,-5.85e-06,0.0,0 STARLINK-5010,1 53930U 22119AW  24213.82812811 -.00000585  00000-0 -18702-4 0  9990,2 53930  53.2169  53.8951 0001138  96.2042 263.9080 15.08838284103521,6917.886,95.438,540.538,538.963,0.0
53930.0,STARLINK-5010,PAYLOAD,2024-08-01 13:21:44,15.0884677,0.0001573,53.2169,50.6241,96.3838,263.7333,0.00014797,2.068e-05,0.0,0 STARLINK-5010,1 53930U 22119AW  24214.55676214  .00002068  00000-0  14797-3 0  9991,2 53930  53.2169  50.6241 0001573  96.3838 263.7333 15.08846770103635,6917.86,95.437,540.813,538.637,0.0
53930.0,STARLINK-5010,PAYLOAD,2024-08-01 19:43:16,15.08854533,0.0001196,53.217,49.4349,103.2095,256.903,0.00020421,2.965e-05,0.0,0 STARLINK-5010,1 53930U 22119AW  24214.82171895  .00002965  00000-0  20421-3 0  9993,2 53930  53.2170  49.4349 0001196 103.2095 256.9030 15.08854533103674,6917.836,95.437,540.528,538.874,0.0
53930.0,STARLINK-5010,PAYLOAD,2024-08-02 13:12:31,15.08839569,0.0001286,53.2165,46.164,101.8921,258.2215,0.00019817,2.867e-05,0.0,0 STARLINK-5010,1 53930U 22119AW  24215.55036658  .00002867  00000-0  19817-3 0  9999,2 53930  53.2165  46.1640 0001286 101.8921 258.2215 15.08839569103366,6917.882,95.438,540.636,538.857,0.0
53930.0,STARLINK-5010,PAYLOAD,2024-08-02 19:34:04,15.08828517,0.0001455,53.2172,44.9742,102.5208,257.5947,-0.00022844,-3.921e-05,0.0,0 STARLINK-5010,1 53930U 22119AW  24215.81532788 -.00003921  00000-0 -22844-3 0  9991,2 53930  53.2172  44.9742 0001455 102.5208 257.5947 15.08828517103823,6917.915,95.438,540.787,538.774,0.0
53930.0,STARLINK-5010,PAYLOAD,2024-08-03 13:03:19,15.08835303,0.0001343,53.2174,41.7026,94.7808,265.3338,0.00064732,0.00010028,0.0,0 STARLINK-5010,1 53930U 22119AW  24216.54397355  .00010028  00000-0  64732-3 0  9997,2 53930  53.2174  41.7026 0001343  94.7808 265.3338 15.08835303103517,6917.895,95.438,540.689,538.831,0.0
53930.0,STARLINK-5010,PAYLOAD,2024-08-03 19:24:51,15.08852716,0.0001401,53.2176,40.5162,91.3374,268.7779,0.0011176,0.00017549,0.0,0 STARLINK-5010,1 53930U 22119AW  24216.80893179  .00017549  00000-0  11176-2 0  9999,2 53930  53.2176  40.5162 0001401  91.3374 268.7779 15.08852716103976,6917.842,95.437,540.676,538.737,0.0
53930.0,STARLINK-5010,PAYLOAD,2024-08-04 04:57:09,15.08886862,0.0001399,53.2176,38.7319,98.2523,261.8627,0.0017843,0.0002826,0.0,0 STARLINK-5010,1 53930U 22119AW  24217.20636057  .00028260  00000-0  17843-2 0  9993,2 53930  53.2176  38.7319 0001399  98.2523 261.8627 15.08886862103613,6917.737,95.435,540.57,538.634,0.0
53930.0,STARLINK-5010,PAYLOAD,2024-08-04 11:18:42,15.08875522,0.0003821,53.2171,37.5432,86.1874,273.9555,0.0013509,0.000213,0.0,0 STARLINK-5010,1 53930U 22119AW  24217.47132718  .00021300  00000-0  13509-2 0  9990,2 53930  53.2171  37.5432 0003821  86.1874 273.9555 15.08875522103657,6917.772,95.435,542.28,536.994,0.0
53930.0,STARLINK-5010,PAYLOAD,2024-08-04 20:51:01,15.08852865,0.0001372,53.2171,35.7582,102.6256,257.489,0.0029974,0.00047756,0.0,0 STARLINK-5010,1 53930U 22119AW  24217.86876757  .00047756  00000-0  29974-2 0  9997,2 53930  53.2171  35.7582 0001372 102.6256 257.4890 15.08852865103711,6917.841,95.437,540.655,538.757,0.0
53930.0,STARLINK-5010,PAYLOAD,2024-08-05 04:47:56,15.0886529,0.0001246,53.217,34.2709,88.9531,271.1604,0.0019659,0.0003116,0.0,0 STARLINK-5010,1 53930U 22119AW  24218.19996384  .00031160  00000-0  19659-2 0  9994,2 53930  53.2170  34.2709 0001246  88.9531 271.1604 15.08865290103764,6917.803,95.436,540.53,538.806,0.0
53930.0,STARLINK-5010,PAYLOAD,2024-08-05 19:06:25,15.08845451,0.0001221,53.2161,31.5921,84.6719,275.4412,0.0019146,0.00030319,0.0,0 STARLINK-5010,1 53930U 22119AW  24218.79613005  .00030319  00000-0  19146-2 0  9992,2 53930  53.2161  31.5921 0001221  84.6719 275.4412 15.08845451103855,6917.864,95.437,540.573,538.884,0.0
53930.0,STARLINK-5010,PAYLOAD,2024-08-06 04:38:44,15.08867207,0.0001431,53.2159,29.8062,69.7942,290.3204,0.0022097,0.00035081,0.0,0 STARLINK-5010,1 53930U 22119AW  24219.19356802  .00035081  00000-0  22097-2 0  9996,2 53930  53.2159  29.8062 0001431  69.7942 290.3204 15.08867207104335,6917.797,95.436,540.652,538.672,0.0
53930.0,STARLINK-5010,PAYLOAD,2024-08-06 18:57:12,15.08844481,0.0001164,53.2156,27.1322,73.7143,286.3977,0.0018042,0.00028546,0.0,0 STARLINK-5010,1 53930U 22119AW  24219.78973135  .00028546  00000-0  18042-2 0  9998,2 53930  53.2156  27.1322 0001164  73.7143 286.3977 15.08844481104008,6917.867,95.437,540.537,538.926,0.0
53930.0,STARLINK-5010,PAYLOAD,2024-08-07 17:12:36,15.08851791,0.0001312,53.2173,22.9654,71.207,288.9065,0.0010628,0.00016672,0.0,0 STARLINK-5010,1 53930U 22119AW  24220.71709223  .00016672  00000-0  10628-2 0  9997,2 53930  53.2173  22.9654 0001312  71.2070 288.9065 15.08851791104148,6917.844,95.437,540.617,538.802,0.0
53930.0,STARLINK-5010,PAYLOAD,2024-08-08 13:52:37,15.08844158,0.0001396,53.2171,19.1024,64.9466,295.1671,0.00028952,4.323e-05,0.0,0 STARLINK-5010,1 53930U 22119AW  24221.57821247  .00004323  00000-0  28952-3 0  9993,2 53930  53.2171  19.1024 0001396  64.9466 295.1671 15.08844158104697,6917.868,95.437,540.698,538.767,0.0
53930.0,STARLINK-5010,PAYLOAD,2024-08-08 17:03:23,15.08846448,0.0001308,53.2165,18.507,75.2625,284.8512,0.00025523,3.777e-05,0.0,0 STARLINK-5010,1 53930U 22119AW  24221.71069131  .00003777  00000-0  25523-3 0  9998,2 53930  53.2165  18.5070 0001308  75.2625 284.8512 15.08846448104298,6917.861,95.437,540.631,538.821,0.0
